NORAD_CAT_ID,OBJECT_NAME,OBJECT_TYPE,EPOCH,MEAN_MOTION,ECCENTRICITY,INCLINATION,RA_OF_ASC_NODE,ARG_OF_PERICENTER,MEAN_ANOMALY,BSTAR,MEAN_MOTION_DOT,MEAN_MOTION_DDOT,TLE_LINE0,TLE_LINE1,TLE_LINE2,SEMIMAJOR_AXIS,PERIOD,APOGEE,PERIGEE,DECAYED
49131.0,STARLINK-3096,PAYLOAD,2022-03-18 14:00:01,15.67776675,0.0003723,69.9998,325.6085,254.1555,210.2038,-0.005422,-0.00558958,0.0,0 STARLINK-3096,1 49131U 21082B   22077.58334491 -.00558958  00000-0 -54220-2 0  9993,2 49131  69.9998 325.6085 0003723 254.1555 210.2038 15.67776675  3715,6743.401999999999,91.85,367.777,362.756,0.0
49131.0,STARLINK-3096,PAYLOAD,2022-03-18 22:00:00,15.67383352,0.0003578,70.0002,324.6742,255.5071,289.3776,-0.0054725,-0.00555395,0.0,0 STARLINK-3096,1 49131U 21082B   22077.91667824 -.00555395  00000-0 -54725-2 0  9991,2 49131  70.0002 324.6742 0003578 255.5071 289.3776 15.67383352  3766,6744.53,91.873,368.8080000000001,363.982,0.0
49131.0,STARLINK-3096,PAYLOAD,2022-03-19 02:00:01,15.67189143,0.0003577,70.0002,324.2073,265.8666,139.16899999999998,-0.0055383,-0.00557511,0.0,0 STARLINK-3096,1 49131U 21082B   22078.08335648 -.00557511  00000-0 -55383-2 0  9999,2 49131  70.0002 324.2073 0003577 265.8666 139.1690 15.67189143 29286,6745.087,91.884,369.365,364.539,0.0
49131.0,STARLINK-3096,PAYLOAD,2022-03-19 14:00:01,15.66600979,0.0003694,70.0001,322.8077,255.7314,88.7943,-0.0056557,-0.00556043,0.0,0 STARLINK-3096,1 49131U 21082B   22078.58334491 -.00556043  00000-0 -56557-2 0  9992,2 49131  70.0001 322.8077 0003694 255.7314  88.7943 15.66600979  3692,6746.775,91.919,371.133,366.148,0.0
49131.0,STARLINK-3096,PAYLOAD,2022-03-19 22:00:01,15.66212059,0.0003558,70.0,321.8753,267.1832,156.5234,-0.0057956,-0.0056059,0.0,0 STARLINK-3096,1 49131U 21082B   22078.91668981 -.00560590  00000-0 -57956-2 0  9999,2 49131  70.0000 321.8753 0003558 267.1832 156.5234 15.66212059  3709,6747.892,91.942,372.158,367.356,0.0
49131.0,STARLINK-3096,PAYLOAD,2022-03-20 06:00:00,15.65821335,0.0003639,69.9997,320.9431,255.1569,247.1314,-0.0058918999999999,-0.00561007,0.0,0 STARLINK-3096,1 49131U 21082B   22079.25001157 -.00561007  00000-0 -58919-2 0  9997,2 49131  69.9997 320.9431 0003639 255.1569 247.1314 15.65821335 29467,6749.015,91.965,373.336,368.424,0.0
49131.0,STARLINK-3096,PAYLOAD,2022-03-20 14:00:01,15.65429224,0.0003456,69.9998,320.0117,258.5233,321.943,-0.0059733,-0.00559922,0.0,0 STARLINK-3096,1 49131U 21082B   22079.58334491 -.00559922  00000-0 -59733-2 0  9991,2 49131  69.9998 320.0117 0003456 258.5233 321.9430 15.65429224  3689,6750.142,91.988,374.339,369.674,0.0
49131.0,STARLINK-3096,PAYLOAD,2022-03-20 22:00:01,15.650364,0.0003511,70.0002,319.0809,260.758,37.4825,-0.0060402,-0.00557547,0.0,0 STARLINK-3096,1 49131U 21082B   22079.91668981 -.00557547  00000-0 -60402-2 0  9998,2 49131  70.0002 319.0809 0003511 260.7580  37.4825 15.65036400  3706,6751.271,92.011,375.506,370.766,0.0
49131.0,STARLINK-3096,PAYLOAD,2022-03-21 14:00:01,15.64254125,0.000365,70.0,317.2207,257.34,194.8439,-0.0062458,-0.00558814,0.0,0 STARLINK-3096,1 49131U 21082B   22080.58334491 -.00558814  00000-0 -62458-2 0  9990,2 49131  70.0000 317.2207 0003650 257.3400 194.8439 15.64254125 29671,6753.522,92.057,377.852,372.922,0.0
49131.0,STARLINK-3096,PAYLOAD,2022-03-21 22:00:00,15.63860866,0.0003427,69.9999,316.2915,263.7759,264.7092,-0.0063051,-0.00555583,0.0,0 STARLINK-3096,1 49131U 21082B   22080.91667824 -.00555583  00000-0 -63051-2 0  9996,2 49131  69.9999 316.2915 0003427 263.7759 264.7092 15.63860866  3689,6754.654,92.08,378.834,374.204,0.0
49131.0,STARLINK-3096,PAYLOAD,2022-03-22 14:00:01,15.63079301,0.0003592,70.0,314.4346,255.762,63.915,-0.0065226,-0.00557254,0.0,0 STARLINK-3096,1 49131U 21082B   22081.58334491 -.00557254  00000-0 -65226-2 0  9994,2 49131  70.0000 314.4346 0003592 255.7620  63.9150 15.63079301  3718,6756.905,92.126,381.197,376.343,0.0
49131.0,STARLINK-3096,PAYLOAD,2022-03-22 20:00:01,15.6278639,0.0003506,70.0003,313.7388,259.6646,26.2253,-0.0066091,-0.00558123,0.0,0 STARLINK-3096,1 49131U 21082B   22081.83334491 -.00558123  00000-0 -66091-2 0  9999,2 49131  70.0003 313.7388 0003506 259.6646  26.2253 15.62786390 29867,6757.75,92.143,381.984,377.245,0.0
49131.0,STARLINK-3096,PAYLOAD,2022-03-22 22:00:01,15.62689814,0.0003573,70.0002,313.507,262.2785,132.3551,-0.0066653999999999,-0.005606,0.0,0 STARLINK-3096,1 49131U 21082B   22081.91668981 -.00560600  00000-0 -66654-2 0  9990,2 49131  70.0002 313.5070 0003573 262.2785 132.3551 15.62689814  3696,6758.028,92.149,382.3080000000001,377.478,0.0
49131.0,STARLINK-3096,PAYLOAD,2022-03-23 14:00:01,15.61906658,0.0003486,70.0,311.6534,257.28,285.6648,-0.0068578999999999,-0.00559502,0.0,0 STARLINK-3096,1 49131U 21082B   22082.58334491 -.00559502  00000-0 -68579-2 0  9997,2 49131  70.0000 311.6534 0003486 257.2800 285.6648 15.61906658  3712,6760.2869999999975,92.195,384.508,379.795,0.0
49131.0,STARLINK-3096,PAYLOAD,2022-03-23 22:00:00,15.61512077,0.0003412,70.0,310.7273,261.2287,355.2016,-0.0068979,-0.00554535,0.0,0 STARLINK-3096,1 49131U 21082B   22082.91667824 -.00554535  00000-0 -68979-2 0  9998,2 49131  70.0000 310.7273 0003412 261.2287 355.2016 15.61512077 30031,6761.426,92.218,385.598,380.984,0.0
49131.0,STARLINK-3096,PAYLOAD,2022-03-24 14:00:01,15.6073065,0.0003612,70.0001,308.877,258.5324,143.4574,-0.0071362,-0.00556543,0.0,0 STARLINK-3096,1 49131U 21082B   22083.58334491 -.00556543  00000-0 -71362-2 0  9994,2 49131  70.0001 308.8770 0003612 258.5324 143.4574 15.60730650  3679,6763.682,92.264,387.99,383.104,0.0
49131.0,STARLINK-3096,PAYLOAD,2022-03-24 22:00:00,15.60340112,0.0003493,70.0,307.9527,262.7397,211.3259,-0.0072673,-0.00558189,0.0,0 STARLINK-3096,1 49131U 21082B   22083.91667824 -.00558189  00000-0 -72673-2 0  9994,2 49131  70.0000 307.9527 0003493 262.7397 211.3259 15.60340112  3701,6764.811,92.288,389.039,384.31300000000016,0.0
49131.0,STARLINK-3096,PAYLOAD,2022-03-25 00:00:02,15.60241673,0.0003383,70.0001,307.7214,261.9574,320.119,-0.0072724999999999,-0.00556572,0.0,0 STARLINK-3096,1 49131U 21082B   22084.00002315 -.00556572  00000-0 -72725-2 0  9995,2 49131  70.0001 307.7214 0003383 261.9574 320.1190 15.60241673 30209,6765.095,92.293,389.249,384.672,0.0
49131.0,STARLINK-3096,PAYLOAD,2022-03-25 14:00:01,15.59557656,0.0003444,70.0,306.1053,258.5284,358.2807,-0.007484,-0.00557894,0.0,0 STARLINK-3096,1 49131U 21082B   22084.58334491 -.00557894  00000-0 -74840-2 0  9999,2 49131  70.0000 306.1053 0003444 258.5284 358.2807 15.59557656  3688,6767.073,92.334,391.269,386.608,0.0
49131.0,STARLINK-3096,PAYLOAD,2022-03-25 22:00:01,15.59166094,0.0003494,70.0,305.1825,261.2503,66.2918,-0.0076011,-0.00558226,0.0,0 STARLINK-3096,1 49131U 21082B   22084.91668981 -.00558226  00000-0 -76011-2 0  9992,2 49131  70.0000 305.1825 0003494 261.2503  66.2918 15.59166094  3731,6768.206,92.357,392.436,387.706,0.0
49131.0,STARLINK-3096,PAYLOAD,2022-03-26 06:00:00,15.5877475,0.0003805,69.9998,304.2603,251.7002,145.9756,-0.0077128999999999,-0.00558151,0.0,0 STARLINK-3096,1 49131U 21082B   22085.25001157 -.00558151  00000-0 -77129-2 0  9994,2 49131  69.9998 304.2603 0003805 251.7002 145.9756 15.58774750 30404,6769.339,92.38,393.78,388.628,0.0
49131.0,STARLINK-3096,PAYLOAD,2022-03-26 14:00:01,15.58382584,0.0003497,70.0002,303.3387,260.816,206.58900000000003,-0.0078021,-0.00556353,0.0,0 STARLINK-3096,1 49131U 21082B   22085.58334491 -.00556353  00000-0 -78021-2 0  9994,2 49131  70.0002 303.3387 0003497 260.8160 206.5890 15.58382584  3677,6770.475,92.403,394.707,389.972,0.0
49131.0,STARLINK-3096,PAYLOAD,2022-03-26 22:00:00,15.57990052,0.0003371,70.0,302.4176,262.5408,274.1247,-0.0078993,-0.0055507,0.0,0 STARLINK-3096,1 49131U 21082B   22085.91667824 -.00555070  00000-0 -78993-2 0  9993,2 49131  70.0000 302.4176 0003371 262.5408 274.1247 15.57990052  3699,6771.611999999999,92.427,395.76,391.194,0.0
49131.0,STARLINK-3096,PAYLOAD,2022-03-27 14:00:01,15.57208898,0.0003485,70.0002,300.5769,258.8538,54.9223,-0.0081649,-0.00557038,0.0,0 STARLINK-3096,1 49131U 21082B   22086.58334491 -.00557038  00000-0 -81649-2 0  9996,2 49131  70.0002 300.5769 0003485 258.8538  54.9223 15.57208898 30605,6773.876,92.473,398.102,393.381,0.0
49131.0,STARLINK-3096,PAYLOAD,2022-03-27 22:00:01,15.56697389,0.0003875,70.0002,299.657,253.1407,128.6154,-0.0057443,-0.00392414,0.0,0 STARLINK-3096,1 49131U 21082B   22086.91668981 -.00392414  00000-0 -57443-2 0  9997,2 49131  70.0002 299.6570 0003875 253.1407 128.6154 15.56697389  3663,6775.36,92.504,399.85,394.6,0.0
49131.0,STARLINK-3096,PAYLOAD,2022-03-28 14:00:01,15.56034164,0.000342,70.0003,297.8199,259.6779,256.31,-0.0085086,-0.00555706,0.0,0 STARLINK-3096,1 49131U 21082B   22087.58335648 -.00555706  00000-0 -85086-2 0  9991,2 49131  70.0003 297.8199 0003420 259.6779 256.3100 15.56034164  3699,6777.285,92.543,401.468,396.832,0.0
49131.0,STARLINK-3096,PAYLOAD,2022-03-28 22:00:00,15.55641417,0.0003374,70.0,296.902,260.0939,322.2736,-0.0086138,-0.00554527,0.0,0 STARLINK-3096,1 49131U 21082B   22087.91667824 -.00554527  00000-0 -86138-2 0  9991,2 49131  70.0000 296.9020 0003374 260.0939 322.2736 15.55641417 30817,6778.426,92.566,402.578,398.004,0.0
49131.0,STARLINK-3096,PAYLOAD,2022-03-29 14:00:01,15.54860431,0.0003511,70.0003,295.0679,261.2083,92.6373,-0.008904,-0.00556807,0.0,0 STARLINK-3096,1 49131U 21082B   22088.58334491 -.00556807  00000-0 -89040-2 0  9994,2 49131  70.0003 295.0679 0003511 261.2083  92.6373 15.54860431  3718,6780.695,92.613,404.941,400.18,0.0
49131.0,STARLINK-3096,PAYLOAD,2022-03-29 22:00:00,15.54470436,0.0003511,70.0002,294.1517,264.0713,154.8093,-0.0090787,-0.00559478,0.0,0 STARLINK-3096,1 49131U 21082B   22088.91667824 -.00559478  00000-0 -90787-2 0  9997,2 49131  70.0002 294.1517 0003511 264.0713 154.8093 15.54470436  3698,6781.829000000002,92.636,406.076,401.31300000000016,0.0
